start=new Date('2022-09-09T00:00:00.000Z').valueOf();
sats=[{"REF_FRAME":"TEME","EPOCH":"2022-09-08T03:31:05.376864","TLE_LINE1":"1 45372U 20019N   22251.14659001 -.00003262  00000-0 -20015-3 0  9997","PERIAPSIS":"546.115","MEAN_ELEMENT_THEORY":"SGP4","DECAY_DATE":null,"MEAN_MOTION_DDOT":"0.0000000000000","COUNTRY_CODE":"US","REV_AT_EPOCH":"13702","MEAN_ANOMALY":"290.7024","OBJECT_ID":"2020-019N","TLE_LINE2":"2 45372  53.0537 146.2176 0001561  69.4133 290.7024 15.06405563137024","NORAD_CAT_ID":"45372","APOAPSIS":"548.278","PERIOD":"95.592","SEMIMAJOR_AXIS":"6925.332","INCLINATION":"53.0537","RA_OF_ASC_NODE":"146.2176","EPHEMERIS_TYPE":"0","ELEMENT_SET_NO":"999","BSTAR":"-0.00020015000000","CENTER_NAME":"EARTH","CLASSIFICATION_TYPE":"U","FILE":"3563723","RCS_SIZE":"LARGE","GP_ID":"212048403","MEAN_MOTION_DOT":"-0.00003262","SITE":"AFETR","OBJECT_TYPE":"PAYLOAD","ARG_OF_PERICENTER":"69.4133","OBJECT_NAME":"STARLINK-1288","MEAN_MOTION":"15.06405563","TIME_SYSTEM":"UTC","LAUNCH_DATE":"2020-03-18","ECCENTRICITY":"0.00015610"},{"MEAN_ELEMENT_THEORY":"SGP4","EPOCH":"2022-09-08T18:59:57.073920","TLE_LINE1":"1 45373U 20019P   22251.79163280  .00002667  00000-0  19791-3 0  9993","PERIAPSIS":"546.281","REF_FRAME":"TEME","APOAPSIS":"548.197","PERIOD":"95.593","TLE_LINE2":"2 45373  53.0546 143.3215 0001383  77.2716 282.8427 15.06391692137120","NORAD_CAT_ID":"45373","MEAN_ANOMALY":"282.8427","OBJECT_ID":"2020-019P","REV_AT_EPOCH":"13712","COUNTRY_CODE":"US","DECAY_DATE":null,"MEAN_MOTION_DDOT":"0.0000000000000","RCS_SIZE":"LARGE","FILE":"3564431","CENTER_NAME":"EARTH","CLASSIFICATION_TYPE":"U","EPHEMERIS_TYPE":"0","BSTAR":"0.00019791000000","ELEMENT_SET_NO":"999","INCLINATION":"53.0546","RA_OF_ASC_NODE":"143.3215","SEMIMAJOR_AXIS":"6925.374","ECCENTRICITY":"0.00013830","LAUNCH_DATE":"2020-03-18","TIME_SYSTEM":"UTC","SITE":"AFETR","OBJECT_NAME":"STARLINK-1295","OBJECT_TYPE":"PAYLOAD","ARG_OF_PERICENTER":"77.2716","MEAN_MOTION":"15.06391692","GP_ID":"212090111","MEAN_MOTION_DOT":"0.00002667"},{"CENTER_NAME":"EARTH","CLASSIFICATION_TYPE":"U","RCS_SIZE":"LARGE","FILE":"3564410","SEMIMAJOR_AXIS":"6925.345","EPHEMERIS_TYPE":"0","BSTAR":"0.00008933900000","ELEMENT_SET_NO":"999","INCLINATION":"53.0551","RA_OF_ASC_NODE":"146.3214","LAUNCH_DATE":"2020-03-18","TIME_SYSTEM":"UTC","ECCENTRICITY":"0.00015380","MEAN_MOTION_DOT":"0.00001049","GP_ID":"212069713","MEAN_MOTION":"15.06401035","SITE":"AFETR","OBJECT_TYPE":"PAYLOAD","OBJECT_NAME":"STARLINK-1300","ARG_OF_PERICENTER":"83.3064","MEAN_ELEMENT_THEORY":"SGP4","REF_FRAME":"TEME","TLE_LINE1":"1 45374U 20019Q   22251.12447930  .00001049  00000-0  89339-4 0  9997","PERIAPSIS":"546.145","EPOCH":"2022-09-08T02:59:15.011520","OBJECT_ID":"2020-019Q","MEAN_ANOMALY":"276.8100","APOAPSIS":"548.276","PERIOD":"95.592","TLE_LINE2":"2 45374  53.0551 146.3214 0001538  83.3064 276.8100 15.06401035137028","NORAD_CAT_ID":"45374","DECAY_DATE":null,"MEAN_MOTION_DDOT":"0.0000000000000","REV_AT_EPOCH":"13702","COUNTRY_CODE":"US"},{"GP_ID":"212048155","MEAN_MOTION_DOT":"0.00002246","OBJECT_TYPE":"PAYLOAD","SITE":"AFETR","OBJECT_NAME":"STARLINK-1302","MEAN_MOTION":"15.06389250","ARG_OF_PERICENTER":"68.5618","TIME_SYSTEM":"UTC","LAUNCH_DATE":"2020-03-18","ECCENTRICITY":"0.00014670","SEMIMAJOR_AXIS":"6925.382","INCLINATION":"53.0548","RA_OF_ASC_NODE":"145.0526","EPHEMERIS_TYPE":"0","ELEMENT_SET_NO":"999","BSTAR":"0.00016969000000","CENTER_NAME":"EARTH","CLASSIFICATION_TYPE":"U","FILE":"3563723","RCS_SIZE":"LARGE","MEAN_MOTION_DDOT":"0.0000000000000","DECAY_DATE":null,"COUNTRY_CODE":"US","REV_AT_EPOCH":"13706","MEAN_ANOMALY":"291.5527","OBJECT_ID":"2020-019R","TLE_LINE2":"2 45375  53.0548 145.0526 0001467  68.5618 291.5527 15.06389250137063","NORAD_CAT_ID":"45375","APOAPSIS":"548.262","PERIOD":"95.593","REF_FRAME":"TEME","TLE_LINE1":"1 45375U 20019R   22251.40461494  .00002246  00000-0  16969-3 0  9998","PERIAPSIS":"546.231","EPOCH":"2022-09-08T09:42:38.730816","MEAN_ELEMENT_THEORY":"SGP4"},{"RCS_SIZE":"LARGE","FILE":"3563723","CLASSIFICATION_TYPE":"U","CENTER_NAME":"EARTH","EPHEMERIS_TYPE":"0","ELEMENT_SET_NO":"999","BSTAR":"0.00013644000000","RA_OF_ASC_NODE":"146.4670","INCLINATION":"53.0533","SEMIMAJOR_AXIS":"6925.394","ECCENTRICITY":"0.00012700","LAUNCH_DATE":"2020-03-18","TIME_SYSTEM":"UTC","OBJECT_NAME":"STARLINK-1304","SITE":"AFETR","OBJECT_TYPE":"PAYLOAD","MEAN_MOTION":"15.06385194","ARG_OF_PERICENTER":"75.6590","GP_ID":"212047904","MEAN_MOTION_DOT":"0.00001751","MEAN_ELEMENT_THEORY":"SGP4","TLE_LINE1":"1 45376U 20019S   22251.09130990  .00001751  00000-0  13644-3 0  9995","EPOCH":"2022-09-08T02:11:29.175360","PERIAPSIS":"546.379","REF_FRAME":"TEME","PERIOD":"95.593","APOAPSIS":"548.138","NORAD_CAT_ID":"45376","TLE_LINE2":"2 45376  53.0533 146.4670 0001270  75.6590 284.4540 15.06385194137017","OBJECT_ID":"2020-019S","MEAN_ANOMALY":"284.4540","REV_AT_EPOCH":"13701","COUNTRY_CODE":"US","MEAN_MOTION_DDOT":"0.0000000000000","DECAY_DATE":null},{"REF_FRAME":"TEME","PERIAPSIS":"546.313","TLE_LINE1":"1 45377U 20019T   22251.84691710  .00003725  00000-0  26880-3 0  9990","EPOCH":"2022-09-08T20:19:33.637440","MEAN_ELEMENT_THEORY":"SGP4","DECAY_DATE":null,"MEAN_MOTION_DDOT":"0.0000000000000","COUNTRY_CODE":"US","REV_AT_EPOCH":"13713","MEAN_ANOMALY":"280.3751","OBJECT_ID":"2020-019T","TLE_LINE2":"2 45377  53.0542 143.0669 0001288  79.7383 280.3751 15.06402703137131","NORAD_CAT_ID":"45377","APOAPSIS":"548.097","PERIOD":"95.592","SEMIMAJOR_AXIS":"6925.340","INCLINATION":"53.0542","RA_OF_ASC_NODE":"143.0669","EPHEMERIS_TYPE":"0","BSTAR":"0.00026880000000","ELEMENT_SET_NO":"999","CENTER_NAME":"EARTH","CLASSIFICATION_TYPE":"U","FILE":"3564431","RCS_SIZE":"LARGE","MEAN_MOTION_DOT":"0.00003725","GP_ID":"212090612","SITE":"AFETR","OBJECT_TYPE":"PAYLOAD","ARG_OF_PERICENTER":"79.7383","MEAN_MOTION":"15.06402703","OBJECT_NAME":"STARLINK-1305","TIME_SYSTEM":"UTC","LAUNCH_DATE":"2020-03-18","ECCENTRICITY":"0.00012880"},{"TIME_SYSTEM":"UTC","LAUNCH_DATE":"2020-03-18","ECCENTRICITY":"0.00016320","MEAN_MOTION_DOT":"0.00010876","GP_ID":"212090354","OBJECT_TYPE":"PAYLOAD","SITE":"AFETR","OBJECT_NAME":"STARLINK-1310","ARG_OF_PERICENTER":"72.5825","MEAN_MOTION":"15.06413757","CENTER_NAME":"EARTH","CLASSIFICATION_TYPE":"U","FILE":"3564431","RCS_SIZE":"LARGE","SEMIMAJOR_AXIS":"6925.306","INCLINATION":"53.0549","RA_OF_ASC_NODE":"143.1184","ELEMENT_SET_NO":"999","EPHEMERIS_TYPE":"0","BSTAR":"0.00074760000000","MEAN_ANOMALY":"287.5343","OBJECT_ID":"2020-019U","TLE_LINE2":"2 45378  53.0549 143.1184 0001632  72.5825 287.5343 15.06413757137134","NORAD_CAT_ID":"45378","APOAPSIS":"548.302","PERIOD":"95.591","DECAY_DATE":null,"MEAN_MOTION_DDOT":"0.0000000000000","COUNTRY_CODE":"US","REV_AT_EPOCH":"13713","MEAN_ELEMENT_THEORY":"SGP4","REF_FRAME":"TEME","TLE_LINE1":"1 45378U 20019U   22251.83587203  .00010876  00000-0  74760-3 0  9996","EPOCH":"2022-09-08T20:03:39.343392","PERIAPSIS":"546.041"},{"MEAN_MOTION_DOT":"0.00002579","GP_ID":"212089113","OBJECT_TYPE":"PAYLOAD","SITE":"AFETR","ARG_OF_PERICENTER":"82.8650","MEAN_MOTION":"15.06391758","OBJECT_NAME":"STARLINK-1319","TIME_SYSTEM":"UTC","LAUNCH_DATE":"2020-03-18","ECCENTRICITY":"0.00015510","SEMIMAJOR_AXIS":"6925.374","INCLINATION":"53.0529","RA_OF_ASC_NODE":"143.1051","EPHEMERIS_TYPE":"0","BSTAR":"0.00019199000000","ELEMENT_SET_NO":"999","CENTER_NAME":"EARTH","CLASSIFICATION_TYPE":"U","FILE":"3564431","RCS_SIZE":"LARGE","MEAN_MOTION_DDOT":"0.0000000000000","DECAY_DATE":null,"COUNTRY_CODE":"US","REV_AT_EPOCH":"13713","MEAN_ANOMALY":"277.2516","OBJECT_ID":"2020-019V","TLE_LINE2":"2 45379  53.0529 143.1051 0001551  82.8650 277.2516 15.06391758137130","NORAD_CAT_ID":"45379","APOAPSIS":"548.313","PERIOD":"95.593","REF_FRAME":"TEME","TLE_LINE1":"1 45379U 20019V   22251.83955365  .00002579  00000-0  19199-3 0  9991","EPOCH":"2022-09-08T20:08:57.435360","PERIAPSIS":"546.165","MEAN_ELEMENT_THEORY":"SGP4"},{"OBJECT_ID":"2020-019W","MEAN_ANOMALY":"276.9360","APOAPSIS":"548.135","PERIOD":"95.593","TLE_LINE2":"2 45380  53.0554 122.8286 0001296  83.1776 276.9360 15.06392068137412","NORAD_CAT_ID":"45380","DECAY_DATE":null,"MEAN_MOTION_DDOT":"0.0000000000000","REV_AT_EPOCH":"13741","COUNTRY_CODE":"US","MEAN_ELEMENT_THEORY":"SGP4","REF_FRAME":"TEME","PERIAPSIS":"546.340","TLE_LINE1":"1 45380U 20019W   22251.90405953  .00002994  00000-0  21984-3 0  9990","EPOCH":"2022-09-08T21:41:50.743392","LAUNCH_DATE":"2020-03-18","TIME_SYSTEM":"UTC","ECCENTRICITY":"0.00012960","MEAN_MOTION_DOT":"0.00002994","GP_ID":"212089362","OBJECT_TYPE":"PAYLOAD","SITE":"AFETR","OBJECT_NAME":"STARLINK-1207","MEAN_MOTION":"15.06392068","ARG_OF_PERICENTER":"83.1776","CENTER_NAME":"EARTH","CLASSIFICATION_TYPE":"U","RCS_SIZE":"LARGE","FILE":"3564431","SEMIMAJOR_AXIS":"6925.373","EPHEMERIS_TYPE":"0","ELEMENT_SET_NO":"999","BSTAR":"0.00021984000000","INCLINATION":"53.0554","RA_OF_ASC_NODE":"122.8286"},{"APOAPSIS":"548.161","PERIOD":"95.592","TLE_LINE2":"2 45381  53.0535 123.3758 0001365  95.1690 264.9455 15.06399307137399","NORAD_CAT_ID":"45381","MEAN_ANOMALY":"264.9455","OBJECT_ID":"2020-019X","REV_AT_EPOCH":"13739","COUNTRY_CODE":"US","MEAN_MOTION_DDOT":"0.0000000000000","DECAY_DATE":null,"MEAN_ELEMENT_THEORY":"SGP4","TLE_LINE1":"1 45381U 20019X   22251.78242151  .00004262  00000-0  30487-3 0  9994","EPOCH":"2022-09-08T18:46:41.218464","PERIAPSIS":"546.270","REF_FRAME":"TEME","ECCENTRICITY":"0.00013650","LAUNCH_DATE":"2020-03-18","TIME_SYSTEM":"UTC","SITE":"AFETR","OBJECT_NAME":"STARLINK-1258","OBJECT_TYPE":"PAYLOAD","MEAN_MOTION":"15.06399307","ARG_OF_PERICENTER":"95.1690","GP_ID":"212090112","MEAN_MOTION_DOT":"0.00004262","RCS_SIZE":"LARGE","FILE":"3564431","CENTER_NAME":"EARTH","CLASSIFICATION_TYPE":"U","EPHEMERIS_TYPE":"0","ELEMENT_SET_NO":"999","BSTAR":"0.00030487000000","INCLINATION":"53.0535","RA_OF_ASC_NODE":"123.3758","SEMIMAJOR_AXIS":"6925.351"}];
